<?xml version="1.0" encoding="UTF-8"?>
<ndm xmlns:xsi="http://www.w3.org/2001/XMLSchema-instance" xsi:noNamespaceSchemaLocation="https://sanaregistry.org/r/ndmxml_unqualified/ndmxml-2.0.0-master-2.0.xsd">
<omm id="CCSDS_OMM_VERS" version="2.0">
<header><CREATION_DATE/><ORIGINATOR/></header><body><segment><metadata><OBJECT_NAME>KUIPER-00035</OBJECT_NAME><OBJECT_ID>2025-088AA</OBJECT_ID><CENTER_NAME>EARTH</CENTER_NAME><REF_FRAME>TEME</REF_FRAME><TIME_SYSTEM>UTC</TIME_SYSTEM><MEAN_ELEMENT_THEORY>SGP4</MEAN_ELEMENT_THEORY></metadata><data><meanElements><EPOCH>2025-08-16T10:00:01.999584</EPOCH><MEAN_MOTION>14.81409946</MEAN_MOTION><ECCENTRICITY>.0007066</ECCENTRICITY><INCLINATION>51.8984</INCLINATION><RA_OF_ASC_NODE>301.8130</RA_OF_ASC_NODE><ARG_OF_PERICENTER>117.7300</ARG_OF_PERICENTER><MEAN_ANOMALY>237.5822</MEAN_ANOMALY></meanElements><tleParameters><EPHEMERIS_TYPE>0</EPHEMERIS_TYPE><CLASSIFICATION_TYPE>U</CLASSIFICATION_TYPE><NORAD_CAT_ID>63748</NORAD_CAT_ID><ELEMENT_SET_NO>999</ELEMENT_SET_NO><REV_AT_EPOCH>1711</REV_AT_EPOCH><BSTAR>-.70199E-2</BSTAR><MEAN_MOTION_DOT>-.55238E-3</MEAN_MOTION_DOT><MEAN_MOTION_DDOT>0</MEAN_MOTION_DDOT></tleParameters></data></segment></body></omm>
<omm id="CCSDS_OMM_VERS" version="2.0">
<header><CREATION_DATE/><ORIGINATOR/></header><body><segment><metadata><OBJECT_NAME>KUIPER-00037</OBJECT_NAME><OBJECT_ID>2025-088AB</OBJECT_ID><CENTER_NAME>EARTH</CENTER_NAME><REF_FRAME>TEME</REF_FRAME><TIME_SYSTEM>UTC</TIME_SYSTEM><MEAN_ELEMENT_THEORY>SGP4</MEAN_ELEMENT_THEORY></metadata><data><meanElements><EPOCH>2025-08-16T10:00:01.999584</EPOCH><MEAN_MOTION>14.82116993</MEAN_MOTION><ECCENTRICITY>.0006261</ECCENTRICITY><INCLINATION>51.8987</INCLINATION><RA_OF_ASC_NODE>300.8055</RA_OF_ASC_NODE><ARG_OF_PERICENTER>69.8862</ARG_OF_PERICENTER><MEAN_ANOMALY>271.5419</MEAN_ANOMALY></meanElements><tleParameters><EPHEMERIS_TYPE>0</EPHEMERIS_TYPE><CLASSIFICATION_TYPE>U</CLASSIFICATION_TYPE><NORAD_CAT_ID>63749</NORAD_CAT_ID><ELEMENT_SET_NO>999</ELEMENT_SET_NO><REV_AT_EPOCH>1790</REV_AT_EPOCH><BSTAR>-.7271E-2</BSTAR><MEAN_MOTION_DOT>-.58152E-3</MEAN_MOTION_DOT><MEAN_MOTION_DDOT>0</MEAN_MOTION_DDOT></tleParameters></data></segment></body></omm>
<omm id="CCSDS_OMM_VERS" version="2.0">
<header><CREATION_DATE/><ORIGINATOR/></header><body><segment><metadata><OBJECT_NAME>KUIPER-00038</OBJECT_NAME><OBJECT_ID>2025-088AC</OBJECT_ID><CENTER_NAME>EARTH</CENTER_NAME><REF_FRAME>TEME</REF_FRAME><TIME_SYSTEM>UTC</TIME_SYSTEM><MEAN_ELEMENT_THEORY>SGP4</MEAN_ELEMENT_THEORY></metadata><data><meanElements><EPOCH>2025-08-16T10:00:01.999584</EPOCH><MEAN_MOTION>15.19754327</MEAN_MOTION><ECCENTRICITY>.0006369</ECCENTRICITY><INCLINATION>51.8803</INCLINATION><RA_OF_ASC_NODE>290.0422</RA_OF_ASC_NODE><ARG_OF_PERICENTER>115.2983</ARG_OF_PERICENTER><MEAN_ANOMALY>175.1708</MEAN_ANOMALY></meanElements><tleParameters><EPHEMERIS_TYPE>0</EPHEMERIS_TYPE><CLASSIFICATION_TYPE>U</CLASSIFICATION_TYPE><NORAD_CAT_ID>63750</NORAD_CAT_ID><ELEMENT_SET_NO>999</ELEMENT_SET_NO><REV_AT_EPOCH>1705</REV_AT_EPOCH><BSTAR>-.61719E-3</BSTAR><MEAN_MOTION_DOT>-.13683E-3</MEAN_MOTION_DOT><MEAN_MOTION_DDOT>0</MEAN_MOTION_DDOT></tleParameters></data></segment></body></omm>
<omm id="CCSDS_OMM_VERS" version="2.0">
<header><CREATION_DATE/><ORIGINATOR/></header><body><segment><metadata><OBJECT_NAME>KUIPER-00039</OBJECT_NAME><OBJECT_ID>2025-134A</OBJECT_ID><CENTER_NAME>EARTH</CENTER_NAME><REF_FRAME>TEME</REF_FRAME><TIME_SYSTEM>UTC</TIME_SYSTEM><MEAN_ELEMENT_THEORY>SGP4</MEAN_ELEMENT_THEORY></metadata><data><meanElements><EPOCH>2025-08-16T07:08:05.850816</EPOCH><MEAN_MOTION>15.35144773</MEAN_MOTION><ECCENTRICITY>.0008025</ECCENTRICITY><INCLINATION>51.8684</INCLINATION><RA_OF_ASC_NODE>71.5543</RA_OF_ASC_NODE><ARG_OF_PERICENTER>304.1469</ARG_OF_PERICENTER><MEAN_ANOMALY>55.8755</MEAN_ANOMALY></meanElements><tleParameters><EPHEMERIS_TYPE>0</EPHEMERIS_TYPE><CLASSIFICATION_TYPE>U</CLASSIFICATION_TYPE><NORAD_CAT_ID>64500</NORAD_CAT_ID><ELEMENT_SET_NO>999</ELEMENT_SET_NO><REV_AT_EPOCH>905</REV_AT_EPOCH><BSTAR>.64998E-3</BSTAR><MEAN_MOTION_DOT>.22213E-3</MEAN_MOTION_DOT><MEAN_MOTION_DDOT>0</MEAN_MOTION_DDOT></tleParameters></data></segment></body></omm>
<omm id="CCSDS_OMM_VERS" version="2.0">
<header><CREATION_DATE/><ORIGINATOR/></header><body><segment><metadata><OBJECT_NAME>KUIPER-00040</OBJECT_NAME><OBJECT_ID>2025-134B</OBJECT_ID><CENTER_NAME>EARTH</CENTER_NAME><REF_FRAME>TEME</REF_FRAME><TIME_SYSTEM>UTC</TIME_SYSTEM><MEAN_ELEMENT_THEORY>SGP4</MEAN_ELEMENT_THEORY></metadata><data><meanElements><EPOCH>2025-08-16T10:00:01.999584</EPOCH><MEAN_MOTION>15.08117004</MEAN_MOTION><ECCENTRICITY>.0014469</ECCENTRICITY><INCLINATION>51.9045</INCLINATION><RA_OF_ASC_NODE>74.3394</RA_OF_ASC_NODE><ARG_OF_PERICENTER>312.3611</ARG_OF_PERICENTER><MEAN_ANOMALY>101.5155</MEAN_ANOMALY></meanElements><tleParameters><EPHEMERIS_TYPE>0</EPHEMERIS_TYPE><CLASSIFICATION_TYPE>U</CLASSIFICATION_TYPE><NORAD_CAT_ID>64501</NORAD_CAT_ID><ELEMENT_SET_NO>999</ELEMENT_SET_NO><REV_AT_EPOCH>902</REV_AT_EPOCH><BSTAR>-.7135E-2</BSTAR><MEAN_MOTION_DOT>-.110308E-2</MEAN_MOTION_DOT><MEAN_MOTION_DDOT>0</MEAN_MOTION_DDOT></tleParameters></data></segment></body></omm>
<omm id="CCSDS_OMM_VERS" version="2.0">
<header><CREATION_DATE/><ORIGINATOR/></header><body><segment><metadata><OBJECT_NAME>KUIPER-00041</OBJECT_NAME><OBJECT_ID>2025-134C</OBJECT_ID><CENTER_NAME>EARTH</CENTER_NAME><REF_FRAME>TEME</REF_FRAME><TIME_SYSTEM>UTC</TIME_SYSTEM><MEAN_ELEMENT_THEORY>SGP4</MEAN_ELEMENT_THEORY></metadata><data><meanElements><EPOCH>2025-08-16T10:00:01.999584</EPOCH><MEAN_MOTION>15.02509740</MEAN_MOTION><ECCENTRICITY>.0010576</ECCENTRICITY><INCLINATION>51.8854</INCLINATION><RA_OF_ASC_NODE>74.9376</RA_OF_ASC_NODE><ARG_OF_PERICENTER>308.5745</ARG_OF_PERICENTER><MEAN_ANOMALY>127.6212</MEAN_ANOMALY></meanElements><tleParameters><EPHEMERIS_TYPE>0</EPHEMERIS_TYPE><CLASSIFICATION_TYPE>U</CLASSIFICATION_TYPE><NORAD_CAT_ID>64502</NORAD_CAT_ID><ELEMENT_SET_NO>999</ELEMENT_SET_NO><REV_AT_EPOCH>901</REV_AT_EPOCH><BSTAR>-.84782E-3</BSTAR><MEAN_MOTION_DOT>-.11659E-3</MEAN_MOTION_DOT><MEAN_MOTION_DDOT>0</MEAN_MOTION_DDOT></tleParameters></data></segment></body></omm>
<omm id="CCSDS_OMM_VERS" version="2.0">
<header><CREATION_DATE/><ORIGINATOR/></header><body><segment><metadata><OBJECT_NAME>KUIPER-00042</OBJECT_NAME><OBJECT_ID>2025-134D</OBJECT_ID><CENTER_NAME>EARTH</CENTER_NAME><REF_FRAME>TEME</REF_FRAME><TIME_SYSTEM>UTC</TIME_SYSTEM><MEAN_ELEMENT_THEORY>SGP4</MEAN_ELEMENT_THEORY></metadata><data><meanElements><EPOCH>2025-08-16T10:00:01.999584</EPOCH><MEAN_MOTION>15.14459101</MEAN_MOTION><ECCENTRICITY>.0011236</ECCENTRICITY><INCLINATION>51.8777</INCLINATION><RA_OF_ASC_NODE>73.1060</RA_OF_ASC_NODE><ARG_OF_PERICENTER>315.8717</ARG_OF_PERICENTER><MEAN_ANOMALY>17.2542</MEAN_ANOMALY></meanElements><tleParameters><EPHEMERIS_TYPE>0</EPHEMERIS_TYPE><CLASSIFICATION_TYPE>U</CLASSIFICATION_TYPE><NORAD_CAT_ID>64503</NORAD_CAT_ID><ELEMENT_SET_NO>999</ELEMENT_SET_NO><REV_AT_EPOCH>904</REV_AT_EPOCH><BSTAR>.25632E-2</BSTAR><MEAN_MOTION_DOT>.47807E-3</MEAN_MOTION_DOT><MEAN_MOTION_DDOT>0</MEAN_MOTION_DDOT></tleParameters></data></segment></body></omm>
<omm id="CCSDS_OMM_VERS" version="2.0">
<header><CREATION_DATE/><ORIGINATOR/></header><body><segment><metadata><OBJECT_NAME>KUIPER-00043</OBJECT_NAME><OBJECT_ID>2025-134E</OBJECT_ID><CENTER_NAME>EARTH</CENTER_NAME><REF_FRAME>TEME</REF_FRAME><TIME_SYSTEM>UTC</TIME_SYSTEM><MEAN_ELEMENT_THEORY>SGP4</MEAN_ELEMENT_THEORY></metadata><data><meanElements><EPOCH>2025-08-16T10:00:01.999584</EPOCH><MEAN_MOTION>15.29704609</MEAN_MOTION><ECCENTRICITY>.0008005</ECCENTRICITY><INCLINATION>51.8722</INCLINATION><RA_OF_ASC_NODE>71.2205</RA_OF_ASC_NODE><ARG_OF_PERICENTER>304.5188</ARG_OF_PERICENTER><MEAN_ANOMALY>251.6840</MEAN_ANOMALY></meanElements><tleParameters><EPHEMERIS_TYPE>0</EPHEMERIS_TYPE><CLASSIFICATION_TYPE>U</CLASSIFICATION_TYPE><NORAD_CAT_ID>64504</NORAD_CAT_ID><ELEMENT_SET_NO>999</ELEMENT_SET_NO><REV_AT_EPOCH>944</REV_AT_EPOCH><BSTAR>.16676E-2</BSTAR><MEAN_MOTION_DOT>.48684E-3</MEAN_MOTION_DOT><MEAN_MOTION_DDOT>0</MEAN_MOTION_DDOT></tleParameters></data></segment></body></omm>

</ndm>
