KUIPER-00035            
1 63748U 25088AA  25228.41668981 -.00055238  00000+0 -70199-2 0  9995
2 63748  51.8984 301.8130 0007066 117.7300 237.5822 14.81409946 17114
KUIPER-00037            
1 63749U 25088AB  25228.41668981 -.00058152  00000+0 -72710-2 0  9995
2 63749  51.8987 300.8055 0006261  69.8862 271.5419 14.82116993 17904
KUIPER-00038            
1 63750U 25088AC  25228.41668981 -.00013683  00000+0 -61719-3 0  9995
2 63750  51.8803 290.0422 0006369 115.2983 175.1708 15.19754327 17056
KUIPER-00039            
1 64500U 25134A   25228.29728994  .00022213  00000+0  64998-3 0  9997
2 64500  51.8684  71.5543 0008025 304.1469  55.8755 15.35144773  9055
KUIPER-00040            
1 64501U 25134B   25228.41668981 -.00110308  00000+0 -71350-2 0  9995
2 64501  51.9045  74.3394 0014469 312.3611 101.5155 15.08117004  9029
KUIPER-00041            
1 64502U 25134C   25228.41668981 -.00011659  00000+0 -84782-3 0  9999
2 64502  51.8854  74.9376 0010576 308.5745 127.6212 15.02509740  9011
KUIPER-00042            
1 64503U 25134D   25228.41668981  .00047807  00000+0  25632-2 0  9990
2 64503  51.8777  73.1060 0011236 315.8717  17.2542 15.14459101  9042
KUIPER-00043            
1 64504U 25134E   25228.41668981  .00048684  00000+0  16676-2 0  9993
2 64504  51.8722  71.2205 0008005 304.5188 251.6840 15.29704609  9441
